[
    {
        "CCSDS_OMM_VERS": "3.0",
        "COMMENT": "GENERATED VIA SPACE-TRACK.ORG API",
        "CREATION_DATE": "2025-05-04T02:26:54",
        "ORIGINATOR": "18 SPCS",
        "OBJECT_NAME": "COSMOS 2471 (GLONASS)",
        "OBJECT_ID": "2011-009A",
        "CENTER_NAME": "EARTH",
        "REF_FRAME": "TEME",
        "TIME_SYSTEM": "UTC",
        "MEAN_ELEMENT_THEORY": "SGP4",
        "EPOCH": "2025-05-03T21:06:31.990752",
        "MEAN_MOTION": "2.12911435",
        "ECCENTRICITY": "0.00088430",
        "INCLINATION": "65.6349",
        "RA_OF_ASC_NODE": "328.2850",
        "ARG_OF_PERICENTER": "330.7285",
        "MEAN_ANOMALY": "211.1183",
        "EPHEMERIS_TYPE": "0",
        "CLASSIFICATION_TYPE": "U",
        "NORAD_CAT_ID": "37372",
        "ELEMENT_SET_NO": "999",
        "REV_AT_EPOCH": "11036",
        "BSTAR": "0.00000000000000",
        "MEAN_MOTION_DOT": "-0.00000048",
        "MEAN_MOTION_DDOT": "0.0000000000000",
        "SEMIMAJOR_AXIS": "25523.243",
        "PERIOD": "676.338",
        "APOAPSIS": "19167.678",
        "PERIAPSIS": "19122.537",
        "OBJECT_TYPE": "PAYLOAD",
        "RCS_SIZE": "LARGE",
        "COUNTRY_CODE": "CIS",
        "LAUNCH_DATE": "2011-02-26",
        "SITE": "PKMTR",
        "DECAY_DATE": null,
        "FILE": "4718307",
        "GP_ID": "286796300",
        "TLE_LINE0": "0 COSMOS 2471 (GLONASS)",
        "TLE_LINE1": "1 37372U 11009A   25123.87953693 -.00000048  00000-0  00000-0 0  9999",
        "TLE_LINE2": "2 37372  65.6349 328.2850 0008843 330.7285 211.1183  2.12911435110362"
    }
]